[{"OBJECT_NAME":"COSMOS 2529 (757)","OBJECT_ID":"2018-086A","EPOCH":"2026-02-02T00:49:42.019104","MEAN_MOTION":2.13101769,"ECCENTRICITY":0.0007017,"INCLINATION":64.2952,"RA_OF_ASC_NODE":197.1546,"ARG_OF_PERICENTER":252.3371,"MEAN_ANOMALY":107.5592,"EPHEMERIS_TYPE":0,"CLASSIFICATION_TYPE":"U","NORAD_CAT_ID":43687,"ELEMENT_SET_NO":999,"REV_AT_EPOCH":5640,"BSTAR":0,"MEAN_MOTION_DOT":3.4e-7,"MEAN_MOTION_DDOT":0},{"OBJECT_NAME":"COSMOS 2534 (758)","OBJECT_ID":"2019-030A","EPOCH":"2026-02-01T23:35:13.448256","MEAN_MOTION":2.13102168,"ECCENTRICITY":0.00087839,"INCLINATION":64.3687,"RA_OF_ASC_NODE":197.1658,"ARG_OF_PERICENTER":282.3318,"MEAN_ANOMALY":172.3379,"EPHEMERIS_TYPE":0,"CLASSIFICATION_TYPE":"U","NORAD_CAT_ID":44299,"ELEMENT_SET_NO":999,"REV_AT_EPOCH":5204,"BSTAR":0,"MEAN_MOTION_DOT":3.5e-7,"MEAN_MOTION_DDOT":0},{"OBJECT_NAME":"COSMOS 2544 (759)","OBJECT_ID":"2019-088A","EPOCH":"2026-01-31T00:07:15.057696","MEAN_MOTION":2.13101856,"ECCENTRICITY":0.00153803,"INCLINATION":65.4858,"RA_OF_ASC_NODE":78.3108,"ARG_OF_PERICENTER":255.9716,"MEAN_ANOMALY":103.9349,"EPHEMERIS_TYPE":0,"CLASSIFICATION_TYPE":"U","NORAD_CAT_ID":44850,"ELEMENT_SET_NO":999,"REV_AT_EPOCH":4779,"BSTAR":0,"MEAN_MOTION_DOT":1.1e-7,"MEAN_MOTION_DDOT":0},{"OBJECT_NAME":"COSMOS 2545 (760)","OBJECT_ID":"2020-018A","EPOCH":"2026-02-02T01:51:50.904000","MEAN_MOTION":2.1310226,"ECCENTRICITY":0.00096155,"INCLINATION":64.4371,"RA_OF_ASC_NODE":317.1695,"ARG_OF_PERICENTER":252.5046,"MEAN_ANOMALY":107.4193,"EPHEMERIS_TYPE":0,"CLASSIFICATION_TYPE":"U","NORAD_CAT_ID":45358,"ELEMENT_SET_NO":999,"REV_AT_EPOCH":4578,"BSTAR":0,"MEAN_MOTION_DOT":-6.3e-7,"MEAN_MOTION_DDOT":0},{"OBJECT_NAME":"COSMOS 2547 (705K)","OBJECT_ID":"2020-075A","EPOCH":"2026-02-02T06:23:03.179328","MEAN_MOTION":2.131,"ECCENTRICITY":0.00062339,"INCLINATION":64.5994,"RA_OF_ASC_NODE":196.975,"ARG_OF_PERICENTER":227.4729,"MEAN_ANOMALY":132.4465,"EPHEMERIS_TYPE":0,"CLASSIFICATION_TYPE":"U","NORAD_CAT_ID":46805,"ELEMENT_SET_NO":999,"REV_AT_EPOCH":4103,"BSTAR":0,"MEAN_MOTION_DOT":3.4e-7,"MEAN_MOTION_DDOT":0},{"OBJECT_NAME":"COSMOS 2557 (706K)","OBJECT_ID":"2022-075A","EPOCH":"2026-02-01T23:05:10.070304","MEAN_MOTION":2.13101521,"ECCENTRICITY":0.00126038,"INCLINATION":64.3786,"RA_OF_ASC_NODE":319.2508,"ARG_OF_PERICENTER":281.9315,"MEAN_ANOMALY":77.9524,"EPHEMERIS_TYPE":0,"CLASSIFICATION_TYPE":"U","NORAD_CAT_ID":52984,"ELEMENT_SET_NO":999,"REV_AT_EPOCH":2783,"BSTAR":0,"MEAN_MOTION_DOT":-6.6e-7,"MEAN_MOTION_DDOT":0},{"OBJECT_NAME":"COSMOS 2559 (707K)","OBJECT_ID":"2022-130A","EPOCH":"2026-01-30T21:41:59.644320","MEAN_MOTION":2.13101077,"ECCENTRICITY":0.00107809,"INCLINATION":64.3523,"RA_OF_ASC_NODE":319.411,"ARG_OF_PERICENTER":187.0488,"MEAN_ANOMALY":172.9548,"EPHEMERIS_TYPE":0,"CLASSIFICATION_TYPE":"U","NORAD_CAT_ID":54031,"ELEMENT_SET_NO":999,"REV_AT_EPOCH":2576,"BSTAR":0,"MEAN_MOTION_DOT":-6.8e-7,"MEAN_MOTION_DDOT":0},{"OBJECT_NAME":"COSMOS 2564 (761)","OBJECT_ID":"2022-161A","EPOCH":"2026-02-02T02:15:41.126400","MEAN_MOTION":2.13101934,"ECCENTRICITY":0.0008794,"INCLINATION":64.7417,"RA_OF_ASC_NODE":197.1925,"ARG_OF_PERICENTER":204.6673,"MEAN_ANOMALY":155.2637,"EPHEMERIS_TYPE":0,"CLASSIFICATION_TYPE":"U","NORAD_CAT_ID":54377,"ELEMENT_SET_NO":999,"REV_AT_EPOCH":2475,"BSTAR":0,"MEAN_MOTION_DOT":3.5e-7,"MEAN_MOTION_DDOT":0},{"OBJECT_NAME":"COSMOS 2569 (703K)","OBJECT_ID":"2023-114A","EPOCH":"2026-02-02T02:34:42.472992","MEAN_MOTION":2.13103961,"ECCENTRICITY":0.00123508,"INCLINATION":65.2224,"RA_OF_ASC_NODE":77.1767,"ARG_OF_PERICENTER":289.3887,"MEAN_ANOMALY":70.5569,"EPHEMERIS_TYPE":0,"CLASSIFICATION_TYPE":"U","NORAD_CAT_ID":57517,"ELEMENT_SET_NO":999,"REV_AT_EPOCH":1938,"BSTAR":0,"MEAN_MOTION_DOT":1.0e-7,"MEAN_MOTION_DDOT":0},{"OBJECT_NAME":"COSMOS 2584 (704K)","OBJECT_ID":"2025-042A","EPOCH":"2026-02-01T23:51:40.245120","MEAN_MOTION":2.13103094,"ECCENTRICITY":0.00079235,"INCLINATION":65.0043,"RA_OF_ASC_NODE":77.3991,"ARG_OF_PERICENTER":230.5803,"MEAN_ANOMALY":129.4286,"EPHEMERIS_TYPE":0,"CLASSIFICATION_TYPE":"U","NORAD_CAT_ID":63130,"ELEMENT_SET_NO":999,"REV_AT_EPOCH":716,"BSTAR":0,"MEAN_MOTION_DOT":1.0e-7,"MEAN_MOTION_DDOT":0},{"OBJECT_NAME":"COSMOS 2596 (708K)","OBJECT_ID":"2025-206B","EPOCH":"2026-02-01T12:17:46.260672","MEAN_MOTION":2.13100002,"ECCENTRICITY":0.00135337,"INCLINATION":64.7134,"RA_OF_ASC_NODE":319.7102,"ARG_OF_PERICENTER":312.1946,"MEAN_ANOMALY":156.0496,"EPHEMERIS_TYPE":0,"CLASSIFICATION_TYPE":"U","NORAD_CAT_ID":65590,"ELEMENT_SET_NO":999,"REV_AT_EPOCH":302,"BSTAR":0,"MEAN_MOTION_DOT":-6.6e-7,"MEAN_MOTION_DDOT":0}]
