COSMOS 2529 [GLONASS-M] 
1 43687U 18086A   26033.03451411  .00000034  00000+0  00000+0 0  9999
2 43687  64.2952 197.1546 0007017 252.3371 107.5592  2.13101769 56403
COSMOS 2534 [GLONASS-M] 
1 44299U 19030A   26032.98279454  .00000035  00000+0  00000+0 0  9998
2 44299  64.3687 197.1658 0008783 282.3318 172.3379  2.13102168 52041
COSMOS 2544 [GLONASS-M] 
1 44850U 19088A   26031.00503539  .00000011  00000+0  00000+0 0  9994
2 44850  65.4858  78.3108 0015380 255.9716 103.9349  2.13101856 47791
COSMOS 2545 [GLONASS-M] 
1 45358U 20018A   26033.07767250 -.00000063  00000+0  00000+0 0  9992
2 45358  64.4371 317.1695 0009615 252.5046 107.4193  2.13102260 45785
COSMOS 2547 [GLONASS-K] 
1 46805U 20075A   26033.26600902  .00000034  00000+0  00000+0 0  9991
2 46805  64.5994 196.9750 0006233 227.4729 132.4465  2.13100000 41036
COSMOS 2557 [GLONASS-K] 
1 52984U 22075A   26032.96192211 -.00000066  00000+0  00000+0 0  9999
2 52984  64.3786 319.2508 0012603 281.9315  77.9524  2.13101521 27833
COSMOS 2559 [GLONASS-K] 
1 54031U 22130A   26030.90416255 -.00000068  00000+0  00000+0 0  9997
2 54031  64.3523 319.4110 0010780 187.0488 172.9548  2.13101077 25767
COSMOS 2564 [GLONASS-M] 
1 54377U 22161A   26033.09422600  .00000035  00000+0  00000+0 0  9991
2 54377  64.7417 197.1925 0008794 204.6673 155.2637  2.13101934 24758
COSMOS 2569 [GLONASS-K2]
1 57517U 23114A   26033.10743603  .00000010  00000+0  00000+0 0  9993
2 57517  65.2224  77.1767 0012350 289.3887  70.5569  2.13103961 19388
COSMOS 2584 [GLONASS-K2]
1 63130U 25042A   26032.99421580  .00000010  00000+0  00000+0 0  9996
2 63130  65.0043  77.3991 0007923 230.5803 129.4286  2.13103094  7160
COSMOS 2596 [GLONASS-K1]
1 65590U 25206B   26032.51234098 -.00000066  00000+0  00000+0 0  9996
2 65590  64.7134 319.7102 0013533 312.1946 156.0496  2.13100002  3021
